start=new Date('2022-08-18T00:00:00.000Z').valueOf();
sats=[{"MEAN_MOTION_DOT":"-0.00000220","OBJECT_ID":"2020-074L","GP_ID":"210404653","INCLINATION":"53.0549","ECCENTRICITY":"0.00014820","NORAD_CAT_ID":"46749","REF_FRAME":"TEME","BSTAR":"0.00000415520000","OBJECT_NAME":"STARLINK-1911","REV_AT_EPOCH":"10067","FILE":"3538809","MEAN_ANOMALY":"271.6504","ARG_OF_PERICENTER":"88.4654","PERIAPSIS":"546.208","PERIOD":"95.593","TLE_LINE1":"1 46749U 20074L   22229.29128354 -.00000220  00000-0  41552-5 0  9991","DECAY_DATE":null,"RCS_SIZE":"LARGE","MEAN_ELEMENT_THEORY":"SGP4","RA_OF_ASC_NODE":"39.3422","LAUNCH_DATE":"2020-10-24","MEAN_MOTION_DDOT":"0.0000000000000","MEAN_MOTION":"15.06393196","SEMIMAJOR_AXIS":"6925.369","OBJECT_TYPE":"PAYLOAD","APOAPSIS":"548.261","TIME_SYSTEM":"UTC","SITE":"AFETR","COUNTRY_CODE":"US","EPHEMERIS_TYPE":"0","CENTER_NAME":"EARTH","ELEMENT_SET_NO":"999","CLASSIFICATION_TYPE":"U","TLE_LINE2":"2 46749  53.0549  39.3422 0001482  88.4654 271.6504 15.06393196100673","EPOCH":"2022-08-17T06:59:26.897856"},{"APOAPSIS":"548.218","TIME_SYSTEM":"UTC","OBJECT_TYPE":"PAYLOAD","COUNTRY_CODE":"US","SITE":"AFETR","EPHEMERIS_TYPE":"0","CENTER_NAME":"EARTH","EPOCH":"2022-08-17T06:54:07.318944","TLE_LINE2":"2 46751  53.0557  39.3595 0001462  98.7400 261.3755 15.06402627100671","ELEMENT_SET_NO":"999","CLASSIFICATION_TYPE":"U","LAUNCH_DATE":"2020-10-24","MEAN_MOTION_DDOT":"0.0000000000000","MEAN_MOTION":"15.06402627","SEMIMAJOR_AXIS":"6925.341","REV_AT_EPOCH":"10067","FILE":"3538809","PERIAPSIS":"546.193","PERIOD":"95.592","ARG_OF_PERICENTER":"98.7400","TLE_LINE1":"1 46751U 20074N   22229.28758471  .00001396  00000-0  11257-3 0  9993","MEAN_ANOMALY":"261.3755","DECAY_DATE":null,"RA_OF_ASC_NODE":"39.3595","RCS_SIZE":"LARGE","MEAN_ELEMENT_THEORY":"SGP4","INCLINATION":"53.0557","GP_ID":"210405405","MEAN_MOTION_DOT":"0.00001396","OBJECT_ID":"2020-074N","ECCENTRICITY":"0.00014620","REF_FRAME":"TEME","NORAD_CAT_ID":"46751","BSTAR":"0.00011257000000","OBJECT_NAME":"STARLINK-1920"},{"OBJECT_TYPE":"PAYLOAD","APOAPSIS":"548.091","TIME_SYSTEM":"UTC","SITE":"AFETR","COUNTRY_CODE":"US","CENTER_NAME":"EARTH","EPHEMERIS_TYPE":"0","CLASSIFICATION_TYPE":"U","ELEMENT_SET_NO":"999","EPOCH":"2022-08-17T11:56:40.297632","TLE_LINE2":"2 46752  53.0569  38.3995 0001283  76.2053 283.9079 15.06403744100719","LAUNCH_DATE":"2020-10-24","MEAN_MOTION_DDOT":"0.0000000000000","MEAN_MOTION":"15.06403744","SEMIMAJOR_AXIS":"6925.337","FILE":"3538594","REV_AT_EPOCH":"10071","MEAN_ANOMALY":"283.9079","TLE_LINE1":"1 46752U 20074P   22229.49768863  .00001035  00000-0  88337-4 0  9997","PERIAPSIS":"546.314","PERIOD":"95.592","ARG_OF_PERICENTER":"76.2053","DECAY_DATE":null,"MEAN_ELEMENT_THEORY":"SGP4","RCS_SIZE":"LARGE","RA_OF_ASC_NODE":"38.3995","MEAN_MOTION_DOT":"0.00001035","OBJECT_ID":"2020-074P","GP_ID":"210379768","INCLINATION":"53.0569","ECCENTRICITY":"0.00012830","NORAD_CAT_ID":"46752","REF_FRAME":"TEME","OBJECT_NAME":"STARLINK-1921","BSTAR":"0.00008833700000"},{"DECAY_DATE":null,"RA_OF_ASC_NODE":"41.2369","RCS_SIZE":"LARGE","MEAN_ELEMENT_THEORY":"SGP4","REV_AT_EPOCH":"10063","FILE":"3538089","PERIAPSIS":"546.386","PERIOD":"95.592","ARG_OF_PERICENTER":"86.8537","TLE_LINE1":"1 46753U 20074Q   22228.86738936  .00002382  00000-0  17872-3 0  9997","MEAN_ANOMALY":"273.2585","REF_FRAME":"TEME","NORAD_CAT_ID":"46753","BSTAR":"0.00017872000000","OBJECT_NAME":"STARLINK-1922","GP_ID":"210343340","INCLINATION":"53.0564","MEAN_MOTION_DOT":"0.00002382","OBJECT_ID":"2020-074Q","ECCENTRICITY":"0.00011660","CENTER_NAME":"EARTH","EPHEMERIS_TYPE":"0","EPOCH":"2022-08-16T20:49:02.440704","TLE_LINE2":"2 46753  53.0564  41.2369 0001166  86.8537 273.2585 15.06406471100632","CLASSIFICATION_TYPE":"U","ELEMENT_SET_NO":"999","TIME_SYSTEM":"UTC","APOAPSIS":"548.001","OBJECT_TYPE":"PAYLOAD","COUNTRY_CODE":"US","SITE":"AFETR","MEAN_MOTION":"15.06406471","SEMIMAJOR_AXIS":"6925.329","LAUNCH_DATE":"2020-10-24","MEAN_MOTION_DDOT":"0.0000000000000"},{"LAUNCH_DATE":"2020-10-24","MEAN_MOTION_DDOT":"0.0000000000000","MEAN_MOTION":"15.06405076","SEMIMAJOR_AXIS":"6925.333","OBJECT_TYPE":"PAYLOAD","APOAPSIS":"548.070","TIME_SYSTEM":"UTC","SITE":"AFETR","COUNTRY_CODE":"US","CENTER_NAME":"EARTH","EPHEMERIS_TYPE":"0","CLASSIFICATION_TYPE":"U","ELEMENT_SET_NO":"999","TLE_LINE2":"2 46754  53.0555  41.7915 0001259 100.9586 259.1545 15.06405076100594","EPOCH":"2022-08-16T17:48:34.948224","MEAN_MOTION_DOT":"0.00003663","OBJECT_ID":"2020-074R","GP_ID":"210366201","INCLINATION":"53.0555","ECCENTRICITY":"0.00012590","NORAD_CAT_ID":"46754","REF_FRAME":"TEME","OBJECT_NAME":"STARLINK-1923","BSTAR":"0.00026463000000","FILE":"3538178","REV_AT_EPOCH":"10059","MEAN_ANOMALY":"259.1545","TLE_LINE1":"1 46754U 20074R   22228.74207116  .00003663  00000-0  26463-3 0  9995","ARG_OF_PERICENTER":"100.9586","PERIAPSIS":"546.326","PERIOD":"95.592","DECAY_DATE":null,"MEAN_ELEMENT_THEORY":"SGP4","RCS_SIZE":"LARGE","RA_OF_ASC_NODE":"41.7915"},{"MEAN_MOTION":"15.06412815","SEMIMAJOR_AXIS":"6925.309","LAUNCH_DATE":"2020-10-24","MEAN_MOTION_DDOT":"0.0000000000000","CENTER_NAME":"EARTH","EPHEMERIS_TYPE":"0","ELEMENT_SET_NO":"999","CLASSIFICATION_TYPE":"U","TLE_LINE2":"2 46755  53.0541  43.1949 0001623  61.2040 298.9112 15.06412815100648","EPOCH":"2022-08-17T13:02:21.672960","OBJECT_TYPE":"PAYLOAD","APOAPSIS":"548.298","TIME_SYSTEM":"UTC","SITE":"AFETR","COUNTRY_CODE":"US","NORAD_CAT_ID":"46755","REF_FRAME":"TEME","BSTAR":"0.00049993000000","OBJECT_NAME":"STARLINK-1924","MEAN_MOTION_DOT":"0.00007175","OBJECT_ID":"2020-074S","GP_ID":"210405905","INCLINATION":"53.0541","ECCENTRICITY":"0.00016230","DECAY_DATE":null,"RCS_SIZE":"LARGE","MEAN_ELEMENT_THEORY":"SGP4","RA_OF_ASC_NODE":"43.1949","REV_AT_EPOCH":"10064","FILE":"3538809","MEAN_ANOMALY":"298.9112","PERIAPSIS":"546.050","ARG_OF_PERICENTER":"61.2040","PERIOD":"95.591","TLE_LINE1":"1 46755U 20074S   22229.54330640  .00007175  00000-0  49993-3 0  9999"},{"CLASSIFICATION_TYPE":"U","ELEMENT_SET_NO":"999","EPOCH":"2022-08-17T12:09:22.688640","TLE_LINE2":"2 46756  53.0548  43.7611 0001922  86.1946 273.9263 15.06338605100656","EPHEMERIS_TYPE":"0","CENTER_NAME":"EARTH","SITE":"AFETR","COUNTRY_CODE":"US","OBJECT_TYPE":"PAYLOAD","APOAPSIS":"548.733","TIME_SYSTEM":"UTC","SEMIMAJOR_AXIS":"6925.537","MEAN_MOTION":"15.06338605","MEAN_MOTION_DDOT":"0.0000000000000","LAUNCH_DATE":"2020-10-24","RCS_SIZE":"LARGE","MEAN_ELEMENT_THEORY":"SGP4","RA_OF_ASC_NODE":"43.7611","DECAY_DATE":null,"MEAN_ANOMALY":"273.9263","PERIOD":"95.596","PERIAPSIS":"546.071","ARG_OF_PERICENTER":"86.1946","TLE_LINE1":"1 46756U 20074T   22229.50651260  .00015657  00000-0  10694-2 0  9999","REV_AT_EPOCH":"10065","FILE":"3538809","BSTAR":"0.00106940000000","OBJECT_NAME":"STARLINK-1925","NORAD_CAT_ID":"46756","REF_FRAME":"TEME","ECCENTRICITY":"0.00019220","MEAN_MOTION_DOT":"0.00015657","OBJECT_ID":"2020-074T","GP_ID":"210405656","INCLINATION":"53.0548"},{"CLASSIFICATION_TYPE":"U","ELEMENT_SET_NO":"999","EPOCH":"2022-08-17T07:43:56.094528","TLE_LINE2":"2 46757  53.0544  44.4307 0001396  58.1696 301.9428 15.06399851100609","CENTER_NAME":"EARTH","EPHEMERIS_TYPE":"0","SITE":"AFETR","COUNTRY_CODE":"US","OBJECT_TYPE":"PAYLOAD","APOAPSIS":"548.181","TIME_SYSTEM":"UTC","SEMIMAJOR_AXIS":"6925.349","MEAN_MOTION":"15.06399851","MEAN_MOTION_DDOT":"0.0000000000000","LAUNCH_DATE":"2020-10-24","RCS_SIZE":"LARGE","MEAN_ELEMENT_THEORY":"SGP4","RA_OF_ASC_NODE":"44.4307","DECAY_DATE":null,"MEAN_ANOMALY":"301.9428","ARG_OF_PERICENTER":"58.1696","PERIAPSIS":"546.247","PERIOD":"95.592","TLE_LINE1":"1 46757U 20074U   22229.32217702  .00000671  00000-0  63951-4 0  9995","REV_AT_EPOCH":"10060","FILE":"3538809","BSTAR":"0.00006395100000","OBJECT_NAME":"STARLINK-1926","NORAD_CAT_ID":"46757","REF_FRAME":"TEME","ECCENTRICITY":"0.00013960","OBJECT_ID":"2020-074U","MEAN_MOTION_DOT":"0.00000671","INCLINATION":"53.0544","GP_ID":"210404404"},{"OBJECT_TYPE":"PAYLOAD","TIME_SYSTEM":"UTC","APOAPSIS":"548.236","SITE":"AFETR","COUNTRY_CODE":"US","CENTER_NAME":"EARTH","EPHEMERIS_TYPE":"0","CLASSIFICATION_TYPE":"U","ELEMENT_SET_NO":"999","EPOCH":"2022-08-17T12:35:49.346880","TLE_LINE2":"2 46758  53.0542  43.2746 0001486  66.0046 294.1098 15.06402098100647","LAUNCH_DATE":"2020-10-24","MEAN_MOTION_DDOT":"0.0000000000000","MEAN_MOTION":"15.06402098","SEMIMAJOR_AXIS":"6925.342","FILE":"3538809","REV_AT_EPOCH":"10064","MEAN_ANOMALY":"294.1098","TLE_LINE1":"1 46758U 20074V   22229.52487670  .00001215  00000-0  10047-3 0  9993","ARG_OF_PERICENTER":"66.0046","PERIAPSIS":"546.178","PERIOD":"95.592","DECAY_DATE":null,"MEAN_ELEMENT_THEORY":"SGP4","RCS_SIZE":"LARGE","RA_OF_ASC_NODE":"43.2746","OBJECT_ID":"2020-074V","MEAN_MOTION_DOT":"0.00001215","GP_ID":"210404654","INCLINATION":"53.0542","ECCENTRICITY":"0.00014860","NORAD_CAT_ID":"46758","REF_FRAME":"TEME","OBJECT_NAME":"STARLINK-1928","BSTAR":"0.00010047000000"},{"ECCENTRICITY":"0.00015290","INCLINATION":"53.0563","GP_ID":"210405406","MEAN_MOTION_DOT":"0.00003912","OBJECT_ID":"2020-074W","BSTAR":"0.00028129000000","OBJECT_NAME":"STARLINK-1833","REF_FRAME":"TEME","NORAD_CAT_ID":"46759","PERIAPSIS":"546.117","ARG_OF_PERICENTER":"69.9541","PERIOD":"95.591","TLE_LINE1":"1 46759U 20074W   22229.52026859  .00003912  00000-0  28129-3 0  9998","MEAN_ANOMALY":"290.1613","REV_AT_EPOCH":"10049","FILE":"3538809","RA_OF_ASC_NODE":"53.3211","RCS_SIZE":"LARGE","MEAN_ELEMENT_THEORY":"SGP4","DECAY_DATE":null,"MEAN_MOTION_DDOT":"0.0000000000000","LAUNCH_DATE":"2020-10-24","SEMIMAJOR_AXIS":"6925.311","MEAN_MOTION":"15.06412148","COUNTRY_CODE":"US","SITE":"AFETR","APOAPSIS":"548.235","TIME_SYSTEM":"UTC","OBJECT_TYPE":"PAYLOAD","TLE_LINE2":"2 46759  53.0563  53.3211 0001529  69.9541 290.1613 15.06412148100499","EPOCH":"2022-08-17T12:29:11.206176","CLASSIFICATION_TYPE":"U","ELEMENT_SET_NO":"999","EPHEMERIS_TYPE":"0","CENTER_NAME":"EARTH"}];
